{
    "links": {
        "self": "http://www.neowsapp.com/rest/v1/neo/3604234?api_key=iIulBulltgU6a56xZRHN4H3l9WmuAYTsLGpBGhQ2"
    },
    "id": "3604234",
    "neo_reference_id": "3604234",
    "name": "(2012 KW)",
    "designation": "2012 KW",
    "nasa_jpl_url": "http://ssd.jpl.nasa.gov/sbdb.cgi?sstr=3604234",
    "absolute_magnitude_h": 26.8,
    "estimated_diameter": {
        "kilometers": {
            "estimated_diameter_min": 0.0116025908,
            "estimated_diameter_max": 0.0259441818
        },
        "meters": {
            "estimated_diameter_min": 11.6025908209,
            "estimated_diameter_max": 25.9441817907
        },
        "miles": {
            "estimated_diameter_min": 0.0072095135,
            "estimated_diameter_max": 0.0161209622
        },
        "feet": {
            "estimated_diameter_min": 38.066244069,
            "estimated_diameter_max": 85.1187093863
        }
    },
    "is_potentially_hazardous_asteroid": false,
    "close_approach_data": [
        {
            "close_approach_date": "2012-05-21",
            "close_approach_date_full": "2012-May-21 20:47",
            "epoch_date_close_approach": 1337633220000,
            "relative_velocity": {
                "kilometers_per_second": "10.1235216453",
                "kilometers_per_hour": "36444.6779231819",
                "miles_per_hour": "22645.3055684349"
            },
            "miss_distance": {
                "astronomical": "0.0086795046",
                "lunar": "3.3763272894",
                "kilometers": "1298435.400815202",
                "miles": "806810.3457737076"
            },
            "orbiting_body": "Earth"
        }
    ],
    "orbital_data": {
        "orbit_id": "8",
        "orbit_determination_date": "2017-04-06 08:49:48",
        "first_observation_date": "2012-05-16",
        "last_observation_date": "2012-05-20",
        "data_arc_in_days": 4,
        "observations_used": 33,
        "orbit_uncertainty": "7",
        "minimum_orbit_intersection": ".00583264",
        "jupiter_tisserand_invariant": "4.447",
        "epoch_osculation": "2459000.5",
        "eccentricity": ".3503885547983246",
        "semi_major_axis": "1.499899960387156",
        "inclination": "13.45648015914326",
        "ascending_node_longitude": "60.94090706409293",
        "orbital_period": "670.9526420096728",
        "perihelion_distance": ".9743521809250362",
        "perihelion_argument": "213.94020738",
        "aphelion_distance": "2.025447739849276",
        "perihelion_time": "2458782.718807515019",
        "mean_anomaly": "116.850615655617",
        "mean_motion": ".536550536445775",
        "equinox": "J2000",
        "orbit_class": {
            "orbit_class_type": "APO",
            "orbit_class_description": "Near-Earth asteroid orbits which cross the Earth’s orbit similar to that of 1862 Apollo",
            "orbit_class_range": "a (semi-major axis) > 1.0 AU; q (perihelion) < 1.017 AU"
        }
    },
    "is_sentry_object": false
}